[{"OBJECT_NAME":"STARLINK-33666","OBJECT_ID":"2025-076Z","EPOCH":"2025-12-30T06:47:30.141600","MEAN_MOTION":15.27599166,"ECCENTRICITY":0.00015677,"INCLINATION":43.0019,"RA_OF_ASC_NODE":353.8254,"ARG_OF_PERICENTER":284.2812,"MEAN_ANOMALY":75.7865,"EPHEMERIS_TYPE":0,"CLASSIFICATION_TYPE":"U","NORAD_CAT_ID":63592,"ELEMENT_SET_NO":999,"REV_AT_EPOCH":4121,"BSTAR":0.0016742381,"MEAN_MOTION_DOT":0.00046125,"MEAN_MOTION_DDOT":0},{"OBJECT_NAME":"STARLINK-33723","OBJECT_ID":"2025-076AA","EPOCH":"2025-12-30T06:12:20.889504","MEAN_MOTION":15.27592581,"ECCENTRICITY":0.00014988,"INCLINATION":42.9993,"RA_OF_ASC_NODE":353.6413,"ARG_OF_PERICENTER":283.9269,"MEAN_ANOMALY":76.1416,"EPHEMERIS_TYPE":0,"CLASSIFICATION_TYPE":"U","NORAD_CAT_ID":63593,"ELEMENT_SET_NO":999,"REV_AT_EPOCH":4121,"BSTAR":0.0014573904,"MEAN_MOTION_DOT":0.00040076,"MEAN_MOTION_DDOT":0},{"OBJECT_NAME":"STARLINK-33791","OBJECT_ID":"2025-076AB","EPOCH":"2025-12-30T06:51:12.061728","MEAN_MOTION":15.27602533,"ECCENTRICITY":0.00012895,"INCLINATION":43.0028,"RA_OF_ASC_NODE":353.8451,"ARG_OF_PERICENTER":276.2888,"MEAN_ANOMALY":83.7817,"EPHEMERIS_TYPE":0,"CLASSIFICATION_TYPE":"U","NORAD_CAT_ID":63594,"ELEMENT_SET_NO":999,"REV_AT_EPOCH":4121,"BSTAR":0.0015687833,"MEAN_MOTION_DOT":0.0004319,"MEAN_MOTION_DDOT":0},{"OBJECT_NAME":"STARLINK-33831","OBJECT_ID":"2025-076AC","EPOCH":"2025-12-30T06:17:52.713024","MEAN_MOTION":15.27577696,"ECCENTRICITY":0.00019833,"INCLINATION":43.0063,"RA_OF_ASC_NODE":353.6163,"ARG_OF_PERICENTER":280.4557,"MEAN_ANOMALY":79.6071,"EPHEMERIS_TYPE":0,"CLASSIFICATION_TYPE":"U","NORAD_CAT_ID":63595,"ELEMENT_SET_NO":999,"REV_AT_EPOCH":4121,"BSTAR":0.0013014267,"MEAN_MOTION_DOT":0.00035722,"MEAN_MOTION_DDOT":0},{"OBJECT_NAME":"STARLINK-33879","OBJECT_ID":"2025-083A","EPOCH":"2025-12-30T02:58:08.347872","MEAN_MOTION":15.27614291,"ECCENTRICITY":7.519e-5,"INCLINATION":42.9953,"RA_OF_ASC_NODE":38.4241,"ARG_OF_PERICENTER":231.0769,"MEAN_ANOMALY":129.0016,"EPHEMERIS_TYPE":0,"CLASSIFICATION_TYPE":"U","NORAD_CAT_ID":63634,"ELEMENT_SET_NO":999,"REV_AT_EPOCH":3942,"BSTAR":0.0014895737,"MEAN_MOTION_DOT":0.00040999,"MEAN_MOTION_DDOT":0},{"OBJECT_NAME":"STARLINK-33854","OBJECT_ID":"2025-083B","EPOCH":"2025-12-30T03:31:14.362464","MEAN_MOTION":15.27581193,"ECCENTRICITY":7.329e-5,"INCLINATION":42.9997,"RA_OF_ASC_NODE":37.7463,"ARG_OF_PERICENTER":356.7939,"MEAN_ANOMALY":3.2908,"EPHEMERIS_TYPE":0,"CLASSIFICATION_TYPE":"U","NORAD_CAT_ID":63635,"ELEMENT_SET_NO":999,"REV_AT_EPOCH":3943,"BSTAR":0.0013028878,"MEAN_MOTION_DOT":0.00035766,"MEAN_MOTION_DDOT":0},{"OBJECT_NAME":"STARLINK-33864","OBJECT_ID":"2025-083C","EPOCH":"2025-12-30T06:12:00.297792","MEAN_MOTION":15.27587448,"ECCENTRICITY":0.00016601,"INCLINATION":42.9971,"RA_OF_ASC_NODE":37.7154,"ARG_OF_PERICENTER":257.5374,"MEAN_ANOMALY":102.5292,"EPHEMERIS_TYPE":0,"CLASSIFICATION_TYPE":"U","NORAD_CAT_ID":63636,"ELEMENT_SET_NO":999,"REV_AT_EPOCH":3947,"BSTAR":0.0014652383,"MEAN_MOTION_DOT":0.00040288,"MEAN_MOTION_DDOT":0},{"OBJECT_NAME":"STARLINK-33832","OBJECT_ID":"2025-083D","EPOCH":"2025-12-30T03:20:08.358432","MEAN_MOTION":15.27566365,"ECCENTRICITY":8.265e-5,"INCLINATION":43.0013,"RA_OF_ASC_NODE":37.6864,"ARG_OF_PERICENTER":282.5676,"MEAN_ANOMALY":77.5083,"EPHEMERIS_TYPE":0,"CLASSIFICATION_TYPE":"U","NORAD_CAT_ID":63637,"ELEMENT_SET_NO":999,"REV_AT_EPOCH":3943,"BSTAR":0.0013768964,"MEAN_MOTION_DOT":0.00037805,"MEAN_MOTION_DDOT":0},{"OBJECT_NAME":"STARLINK-33856","OBJECT_ID":"2025-083E","EPOCH":"2025-12-30T03:34:56.416512","MEAN_MOTION":15.27598959,"ECCENTRICITY":0.00014365,"INCLINATION":43.0045,"RA_OF_ASC_NODE":37.755,"ARG_OF_PERICENTER":284.7484,"MEAN_ANOMALY":75.3209,"EPHEMERIS_TYPE":0,"CLASSIFICATION_TYPE":"U","NORAD_CAT_ID":63638,"ELEMENT_SET_NO":999,"REV_AT_EPOCH":3943,"BSTAR":0.0017197199,"MEAN_MOTION_DOT":0.00047393,"MEAN_MOTION_DDOT":0},{"OBJECT_NAME":"STARLINK-33876","OBJECT_ID":"2025-083F","EPOCH":"2025-12-30T03:57:07.990848","MEAN_MOTION":15.27569207,"ECCENTRICITY":0.00013243,"INCLINATION":43.0022,"RA_OF_ASC_NODE":37.8665,"ARG_OF_PERICENTER":246.295,"MEAN_ANOMALY":113.7763,"EPHEMERIS_TYPE":0,"CLASSIFICATION_TYPE":"U","NORAD_CAT_ID":63639,"ELEMENT_SET_NO":999,"REV_AT_EPOCH":3943,"BSTAR":0.0018359032,"MEAN_MOTION_DOT":0.00050588,"MEAN_MOTION_DDOT":0},{"OBJECT_NAME":"STARLINK-33859","OBJECT_ID":"2025-083G","EPOCH":"2025-12-30T07:44:18.712320","MEAN_MOTION":15.27575201,"ECCENTRICITY":0.00017049,"INCLINATION":43.0005,"RA_OF_ASC_NODE":37.3433,"ARG_OF_PERICENTER":257.6674,"MEAN_ANOMALY":102.3987,"EPHEMERIS_TYPE":0,"CLASSIFICATION_TYPE":"U","NORAD_CAT_ID":63640,"ELEMENT_SET_NO":999,"REV_AT_EPOCH":3945,"BSTAR":0.00076769741,"MEAN_MOTION_DOT":0.0002092,"MEAN_MOTION_DDOT":0},{"OBJECT_NAME":"STARLINK-33826","OBJECT_ID":"2025-083H","EPOCH":"2025-12-30T03:38:38.985504","MEAN_MOTION":15.27612166,"ECCENTRICITY":4.599e-5,"INCLINATION":43.0004,"RA_OF_ASC_NODE":37.7784,"ARG_OF_PERICENTER":203.2921,"MEAN_ANOMALY":156.791,"EPHEMERIS_TYPE":0,"CLASSIFICATION_TYPE":"U","NORAD_CAT_ID":63641,"ELEMENT_SET_NO":999,"REV_AT_EPOCH":3943,"BSTAR":0.00124602,"MEAN_MOTION_DOT":0.00034218,"MEAN_MOTION_DDOT":0},{"OBJECT_NAME":"STARLINK-33836","OBJECT_ID":"2025-083J","EPOCH":"2025-12-30T02:48:53.594208","MEAN_MOTION":15.27605552,"ECCENTRICITY":0.00022209,"INCLINATION":42.9989,"RA_OF_ASC_NODE":38.3774,"ARG_OF_PERICENTER":273.8714,"MEAN_ANOMALY":86.1884,"EPHEMERIS_TYPE":0,"CLASSIFICATION_TYPE":"U","NORAD_CAT_ID":63642,"ELEMENT_SET_NO":999,"REV_AT_EPOCH":3942,"BSTAR":0.0011886683,"MEAN_MOTION_DOT":0.00032619,"MEAN_MOTION_DDOT":0},{"OBJECT_NAME":"STARLINK-33558","OBJECT_ID":"2025-083K","EPOCH":"2025-12-30T03:25:41.304288","MEAN_MOTION":15.27602435,"ECCENTRICITY":1.503e-5,"INCLINATION":43.0024,"RA_OF_ASC_NODE":37.7117,"ARG_OF_PERICENTER":96.8865,"MEAN_ANOMALY":263.2004,"EPHEMERIS_TYPE":0,"CLASSIFICATION_TYPE":"U","NORAD_CAT_ID":63643,"ELEMENT_SET_NO":999,"REV_AT_EPOCH":3943,"BSTAR":0.001834425,"MEAN_MOTION_DOT":0.00050599,"MEAN_MOTION_DDOT":0},{"OBJECT_NAME":"STARLINK-33852","OBJECT_ID":"2025-083L","EPOCH":"2025-12-30T02:47:02.202144","MEAN_MOTION":15.27604953,"ECCENTRICITY":6.424e-5,"INCLINATION":42.9973,"RA_OF_ASC_NODE":38.3675,"ARG_OF_PERICENTER":157.8301,"MEAN_ANOMALY":202.2578,"EPHEMERIS_TYPE":0,"CLASSIFICATION_TYPE":"U","NORAD_CAT_ID":63644,"ELEMENT_SET_NO":999,"REV_AT_EPOCH":3945,"BSTAR":0.0014362636,"MEAN_MOTION_DOT":0.00039503,"MEAN_MOTION_DDOT":0},{"OBJECT_NAME":"STARLINK-33835","OBJECT_ID":"2025-083M","EPOCH":"2025-12-30T02:28:32.007072","MEAN_MOTION":15.27611984,"ECCENTRICITY":8.639e-5,"INCLINATION":43.0027,"RA_OF_ASC_NODE":38.2662,"ARG_OF_PERICENTER":236.3497,"MEAN_ANOMALY":123.7272,"EPHEMERIS_TYPE":0,"CLASSIFICATION_TYPE":"U","NORAD_CAT_ID":63645,"ELEMENT_SET_NO":999,"REV_AT_EPOCH":3945,"BSTAR":0.0015519004,"MEAN_MOTION_DOT":0.00042732,"MEAN_MOTION_DDOT":0}]
