STARLINK-33666          
1 63592U 25076Z   25364.28298775  .00046125  00000+0  16742-2 0  9992
2 63592  43.0019 353.8254 0001567 284.2812  75.7865 15.27599166 41217
STARLINK-33723          
1 63593U 25076AA  25364.25857511  .00040076  00000+0  14574-2 0  9999
2 63593  42.9993 353.6413 0001498 283.9269  76.1416 15.27592581 41218
STARLINK-33791          
1 63594U 25076AB  25364.28555627  .00043190  00000+0  15688-2 0  9993
2 63594  43.0028 353.8451 0001289 276.2888  83.7817 15.27602533 41212
STARLINK-33831          
1 63595U 25076AC  25364.26241566  .00035722  00000+0  13014-2 0  9999
2 63595  43.0063 353.6163 0001983 280.4557  79.6071 15.27577696 41218
STARLINK-33879          
1 63634U 25083A   25364.12370773  .00040999  00000+0  14896-2 0  9990
2 63634  42.9953  38.4241 0000751 231.0769 129.0016 15.27614291 39424
STARLINK-33854          
1 63635U 25083B   25364.14669401  .00035766  00000+0  13029-2 0  9995
2 63635  42.9997  37.7463 0000732 356.7939   3.2908 15.27581193 39432
STARLINK-33864          
1 63636U 25083C   25364.25833678  .00040288  00000+0  14652-2 0  9995
2 63636  42.9971  37.7154 0001660 257.5374 102.5292 15.27587448 39476
STARLINK-33832          
1 63637U 25083D   25364.13898563  .00037805  00000+0  13769-2 0  9996
2 63637  43.0013  37.6864 0000826 282.5676  77.5083 15.27566365 39439
STARLINK-33856          
1 63638U 25083E   25364.14926408  .00047393  00000+0  17197-2 0  9990
2 63638  43.0045  37.7550 0001436 284.7484  75.3209 15.27598959 39437
STARLINK-33876          
1 63639U 25083F   25364.16467582  .00050588  00000+0  18359-2 0  9997
2 63639  43.0022  37.8665 0001324 246.2950 113.7763 15.27569207 39434
STARLINK-33859          
1 63640U 25083G   25364.32243880  .00020920  00000+0  76770-3 0  9999
2 63640  43.0005  37.3433 0001704 257.6674 102.3987 15.27575201 39451
STARLINK-33826          
1 63641U 25083H   25364.15184011  .00034218  00000+0  12460-2 0  9991
2 63641  43.0004  37.7784 0000459 203.2921 156.7910 15.27612166 39431
STARLINK-33836          
1 63642U 25083J   25364.11728697  .00032619  00000+0  11887-2 0  9997
2 63642  42.9989  38.3774 0002220 273.8714  86.1884 15.27605552 39425
STARLINK-33558          
1 63643U 25083K   25364.14283917  .00050599  00000+0  18344-2 0  9994
2 63643  43.0024  37.7117 0000150  96.8865 263.2004 15.27602435 39432
STARLINK-33852          
1 63644U 25083L   25364.11599771  .00039503  00000+0  14363-2 0  9999
2 63644  42.9973  38.3675 0000642 157.8301 202.2578 15.27604953 39457
STARLINK-33835          
1 63645U 25083M   25364.10314823  .00042732  00000+0  15519-2 0  9994
2 63645  43.0027  38.2662 0000863 236.3497 123.7272 15.27611984 39459
